OBJECT_NAME,OBJECT_ID,EPOCH,MEAN_MOTION,ECCENTRICITY,INCLINATION,RA_OF_ASC_NODE,ARG_OF_PERICENTER,MEAN_ANOMALY,EPHEMERIS_TYPE,CLASSIFICATION_TYPE,NORAD_CAT_ID,ELEMENT_SET_NO,REV_AT_EPOCH,BSTAR,MEAN_MOTION_DOT,MEAN_MOTION_DDOT
SAUDISAT 1C (SO-50),2002-058C,2026-07-18T21:57:58.675680,14.83102458,.00744132,64.5520,30.8141,256.5934,102.6870,0,U,27607,999,26916,.63019282E-4,.381E-5,0
SAUDISAT 2,2004-025F,2026-07-19T05:51:28.810080,14.56699470,.00243205,98.5523,201.0566,195.5119,164.5336,0,U,28371,999,17041,.31572969E-4,.92E-6,0
SAUDISAT 3,2007-012B,2026-07-18T19:28:36.843456,14.71441294,.00157672,98.1469,150.2358,123.9606,236.3101,0,U,31118,999,3239,.22514249E-4,.89E-6,0
PISAT,2016-059B,2026-07-19T05:25:16.372416,14.69033621,.00305449,97.8193,199.3045,102.5223,257.9402,0,U,41784,999,52444,.82048499E-4,.437E-5,0
FLYING LAPTOP,2017-042G,2026-07-19T07:29:46.898304,15.01328506,.00194751,97.4831,354.6403,19.4544,340.7420,0,U,42831,999,49127,.14003844E-3,.1751E-4,0
SALSAT,2020-068K,2026-07-19T06:10:12.366912,15.30204681,.0009659,97.8864,205.2860,178.4698,181.6573,0,U,46495,999,32026,.13357219E-3,.3822E-4,0
